#dP2023 10  9  0  0  0.00000000      96 __u+U ITR00 EXT  IAC
## 2283  86400.00000000   900.00000000 60226 0.0000000000000
+  119   C07C08C09C10C11C12C13C14C16C19C20C21C22C23C24C25C26
+        C27C28C29C30C32C33C34C35C36C37C38C39C40C41C42C43C44
+        C45C46E02E03E04E05E07E08E09E10E11E12E13E14E15E18E19
+        E21E24E25E26E27E30E31E33E34E36G01G02G03G04G05G06G07
+        G08G09G10G11G12G13G14G15G16G17G18G19G20G21G22G23G24
+        G25G26G27G28G29G30G31G32J02J03J04R01R02R03R04R05R07
+        R08R09R11R12R13R14R15R16R17R18R19R20R21R22R24R25R26
++        10 11 10  8  9  9 10  8 11  8  7  9  8  7  8 10  9
++         7  7  8  9  8  8  7  9  8  8  9 12  7  9  9  7  9
++         9  8  7  7  7  7  7  7  6  7  8  7  7  6  8  8  6
++         6  7  6  6  7  8  7  8  7  7 10  7  6  6  7  9  7
++         6  6  6 10  7  5  6  7  5  6  8  6  7  6  7  8  7
++         7  8  7  7  8  6  6  7  8  9  8  7  8  8  6  7  9
++         9  7  8  7  9  6  7  7  7  8  8  7  7  7  8  7  9
%c M  cc GPS ccc cccc cccc cccc cccc ccccc ccccc ccccc ccccc
%c cc cc ccc ccc cccc cccc cccc cccc ccccc ccccc ccccc ccccc
%f  0.0000000  0.000000000  0.00000000000  0.000000000000000
%f  0.0000000  0.000000000  0.00000000000  0.000000000000000
%i    0    0    0    0      0      0      0      0         0
%i    0    0    0    0      0      0      0      0         0
/* IAC                                ULTRA-RAPID PREDICTION
/* S/V CLOCKS ARE ALIGNED TO GNSS TIME                      
/* G:C1WC2W R:C1PC2P E:C1XC5X C:C2IC6I J:C1CC2S             
/* PCV:IGS20_2280 OL/AL:FES2004  NONE     YN ORB:CoN CLK:CoN
*  2023 10 09 16  0  0.00000000
PC07  -6809.627852  27038.412581  31739.826674   -131.876015
PC08 -20417.832894  27000.279860 -25298.483001    305.326256
PC09  -3727.695353  41669.619701   1391.542103     63.133678
PC10   2493.356383  29842.960591  30175.539132   -205.796829
PC11   -358.245991  26848.103583   7729.309667    194.809985
PC12 -11588.325864  14105.739014  21155.423029    904.481320
PC13 -13513.128192  27849.414518 -28626.205893    364.912427
PC14    -35.970736  16238.125755 -22696.118828    555.733557
PC16 -10607.246523  38851.330946 -11684.590112   -117.907906
PC19 -10594.121471 -17136.343006  19315.683188   -971.451260
PC20   8946.070905 -13380.028092  22799.883262    217.479028
PC21 -24778.167300   1153.510853 -12762.932653   -969.699972
PC22 -25131.952646 -11249.239396   4459.619081   -273.447703
PC23  15514.649353   7355.291680  22003.289361   -849.079881
PC24 -17436.280552  21121.728152   5417.647421    476.787193
PC25   -102.389671  19718.576175  19745.763673    229.149313
PC26 -23142.596697  11102.286281 -11009.890198   -189.305088
PC27  15249.135099  -4980.435187 -22850.859612    211.015309
PC28  15835.229100  14102.040133 -18138.756292    158.694902
PC29  -7480.866600 -26857.631277   1142.010871    185.470164
PC30   5998.841326 -22143.304200 -15902.788778     -6.216748
PC32  24843.774969  -1267.927070  12659.846592   -529.312964
PC33  10605.070175  17096.583629 -19349.849394   -956.850396
PC34  -5078.075908  23070.673908  14836.558938    277.390899
PC35 -16417.361759 -13489.225809  18098.533780    528.962676
PC36   1364.380713 -20050.794548 -19332.100443   -187.623295
PC37  23327.834413  -9889.965578  11676.253611   -848.647294
PC38 -26004.463148  28204.030229 -17673.147185    110.054426
PC39 -11584.754486  36624.518653 -17071.844831     -5.156739
PC40 -10475.576722  20976.538090  35080.662639    -39.493901
PC41  24884.047891  11527.494840  -5135.542616   -873.750426
PC42 -10497.425935  12743.729666 -22460.557199   -526.107891
PC43   6879.926761  27034.953913   -289.551810     43.245076
PC44 -15246.905006   5339.705738  22743.225275    256.477323
PC45 -15857.916772  -6767.834368 -21946.305656    -34.299124
PC46  16642.216275 -21376.879041  -6602.379293    -90.545560
PE02 -20443.859527  14385.629724  15866.817013     68.960059
PE03  -8651.836916  15559.714711 -23659.444100    -63.433799
PE04  -8877.443738 -25046.950546  13038.863581   -230.456854
PE05 -21133.567881  -2957.609221 -20518.004747     25.863513
PE07  21168.504388  20089.999824   4969.583191    -80.844898
PE08   8536.660312  24924.084428 -13510.766664   -158.810022
PE09 -21115.210981 -20158.384232  -4863.592675   -185.380364
PE10  -4419.561554 -22579.045155  18609.305693   -569.874604
PE11 -11327.842253 -13553.957881  23743.492871   3064.667374
PE12   2486.754968 -27316.833992  11131.684865   -729.765721
PE13  10859.127608  14234.629846 -23567.932712    -19.707877
PE14  12479.577964  26643.847188   6427.151203    363.788443
PE15  -2808.758367  27441.562395 -10735.461376    -59.816673
PE18  -1386.479265 -22633.351684 -13970.075946    625.063227
PE19  10673.347618 -13370.915707  24154.852389  -1460.808101
PE21  29289.436587  -4145.003682   1029.155757   -557.407844
PE24 -21125.149597  -9493.938214 -18454.085596   -366.348402
PE25 -29311.493601   3912.769401  -1367.442416     -2.996239
PE26  18183.076055  -7789.447563 -22010.136757    246.320810
PE27  21568.442528   9069.939789  18131.677273   -170.311340
PE30    732.003016  16897.020013  24288.984444   -566.048464
PE31  -1248.716653 -16777.382500 -24342.119160     -7.158655
PE33  14885.429891 -24028.617069  -8756.647716      0.169941
PE34 -14586.549299  24436.022577   8173.897293    -71.459173
PE36 -17974.535349   7103.466799  22423.831315   -127.552153
PG01 -14323.474293  20295.530417   8562.336069    163.957175
PG02 -15569.752761  15391.657461  15412.804583   -544.130816
PG03 -19117.223630  12321.064893 -13771.631150    -88.961862
PG04  -8332.372768  13512.908688 -21266.633808    179.606154
PG05  26097.151716  -5217.642843   -233.193569   -145.849921
PG06   8913.148892  14123.194714 -20563.091839    534.219823
PG07  -4008.644477  25057.827265   7419.342034     44.993152
PG08 -15833.612625   4193.718557  20906.594730   -146.269898
PG09   1141.264320  20192.186089 -17278.972237    -37.204724
PG10 -12852.001083 -11752.425415  20333.895044    -56.640660
PG11  15680.909051   1077.470901 -21384.734435   -407.295835
PG12  21731.527917 -10044.260425 -11698.673544   -433.969357
PG13  18250.827414   6252.124935  18151.388839    582.058777
PG14   8921.100640  13947.151008  20823.556350    209.049066
PG15  14708.336459  -7089.232205  20501.059717     85.446676
PG16 -26360.738655  -1594.084977  -4900.350658   -441.794222
PG17  12392.420102  23018.457691   4743.807736    723.857126
PG18   3482.892078 -24676.094083   8926.594960   -443.503815
PG19  16867.467107  20275.182155  -4635.563220    382.641273
PG20  23711.293562    763.092037 -11707.120143    407.694991
PG21 -16147.843780  11501.820903  17722.062917    147.159279
PG22  15340.794320  11871.523422  18472.894868    106.145863
PG23   1295.487668 -15208.798869  21724.618525     80.134980
PG24  14793.901123 -17361.844091  12860.410709   -341.619624
PG25   9308.546421 -15708.782226 -19514.292007    471.890697
PG26 -21960.377123  -5702.802138 -14216.929119    224.178682
PG27 -20330.542227  -8855.606545  14664.661005    -52.499701
PG28  -8735.632234 -15997.977712 -19342.898132    -22.557927
PG29    398.142466 -20128.475640 -17314.724309   -609.958091
PG30   3745.468082  21349.124916  15295.728095   -480.221436
PG31 -14088.672125  -6311.084778 -21798.222386   -224.441943
PG32 -16444.153521 -20986.832122    935.330503   -570.230276
PJ02 -30549.381507  24409.300779  20912.491244     -5.381183
PJ03 -28776.813812  26220.657151  21292.357624     -4.652889
PJ04 -28196.874598  19831.978588 -19181.892921     71.068317
PR01 -18035.929822 -14657.805003  10500.203728     67.340177
PR02 -22880.756639  -8592.976454  -7390.345007    -22.398477
PR03 -14768.964732   3075.078073 -20549.545020     86.754852
PR04   1345.461696  12484.252831 -22178.315012    206.130672
PR05  16590.296578  15367.153738 -11768.184567    120.343791
PR07  13997.349435  -3719.265049  21015.239780     66.470311
PR08  -1595.156682 -12692.575678  22126.676991    -72.888226
PR09  19843.964403  -3858.126039  15627.768016    146.708366
PR11  11992.173720 -16378.083434 -15445.446676   -190.516925
PR12  -6398.897045  -8981.153545 -22973.715250     32.162118
PR13 -18673.872262   2191.934544 -17249.931445    -40.018452
PR14 -21361.230206  13915.903563    467.403568     25.378997
PR15 -10882.463025  16180.447439  16463.311201     85.521620
PR16   6115.996995   9002.585761  23081.490765     19.467277
PR17  -8555.686485  14019.433796  19547.964802     24.270504
PR18  -2428.798266  24606.943356   6203.122054    105.998537
PR19   3672.302790  23580.263200  -9024.887352   -250.278657
PR20   9939.031288   6370.211516 -22595.739268   -101.496117
PR21   8356.934112 -14684.864154 -19090.886528    -44.260142
PR22   2803.450510 -24833.119327  -5098.721424     87.897355
PR24 -10707.050361  -5323.174077  22548.864245    -27.562375
PR25   9420.147193 -13554.782362 -19429.513558     28.918138
PR26  -1141.169743 -12452.267222  22243.666909    -21.222357
EOF
